NORAD_CAT_ID,OBJECT_NAME,OBJECT_TYPE,EPOCH,MEAN_MOTION,ECCENTRICITY,INCLINATION,RA_OF_ASC_NODE,ARG_OF_PERICENTER,MEAN_ANOMALY,BSTAR,MEAN_MOTION_DOT,MEAN_MOTION_DDOT,TLE_LINE0,TLE_LINE1,TLE_LINE2,SEMIMAJOR_AXIS,PERIOD,APOGEE,PERIGEE,DECAYED
55415.0,STARLINK-5618,PAYLOAD,2023-06-02 22:00:00,14.99304611,0.0003204,70.0003,112.7928,268.3579,55.9247,3.2369e-05,3.02e-06,0.0,0 STARLINK-5618,1 55415U 23014AA  23153.91667824  .00000302  00000-0  32369-4 0  9999,2 55415  70.0003 112.7928 0003204 268.3579  55.9247 14.99304611  1305,6947.181,96.045,571.271,566.82,0.0
55415.0,STARLINK-5618,PAYLOAD,2023-06-03 02:57:47,14.99296387,0.0003101,69.9988,112.2712,269.6577,90.4227,-5.8602e-05,-8.11e-06,0.0,0 STARLINK-5618,1 55415U 23014AA  23154.12346375 -.00000811  00000-0 -58602-4 0  9993,2 55415  69.9988 112.2712 0003101 269.6577  90.4227 14.99296387 19253,6947.206,96.045,571.225,566.917,0.0
55415.0,STARLINK-5618,PAYLOAD,2023-06-03 07:46:00,14.99297844,0.0003054,69.9989,111.766,269.0802,91.0008,-2.9664e-05,-4.57e-06,0.0,0 STARLINK-5618,1 55415U 23014AA  23154.32361277 -.00000457  00000-0 -29664-4 0  9995,2 55415  69.9989 111.7660 0003054 269.0802  91.0008 14.99297844 20224,6947.202,96.045,571.188,566.945,0.0
55415.0,STARLINK-5618,PAYLOAD,2023-06-03 20:34:34,14.99299755,0.000306,69.9989,110.4185,268.541,91.5399,3.1491e-05,2.91e-06,0.0,0 STARLINK-5618,1 55415U 23014AA  23154.85734442  .00000291  00000-0  31491-4 0  9996,2 55415  69.9989 110.4185 0003060 268.5410  91.5399 14.99299755 20308,6947.196,96.045,571.186,566.935,0.0
55415.0,STARLINK-5618,PAYLOAD,2023-06-04 02:58:51,14.99301082,0.0003055,69.999,109.7446,269.1425,90.9384,4.4892e-05,4.55e-06,0.0,0 STARLINK-5618,1 55415U 23014AA  23155.12421051  .00000455  00000-0  44892-4 0  9997,2 55415  69.9990 109.7446 0003055 269.1425  90.9384 14.99301082 19401,6947.192,96.045,571.179,566.934,0.0
55415.0,STARLINK-5618,PAYLOAD,2023-06-04 14:11:21,14.99303502,0.0003008,69.9991,108.5652,269.5784,90.5031,7.1465e-05,7.81e-06,0.0,0 STARLINK-5618,1 55415U 23014AA  23155.59122528  .00000781  00000-0  71465-4 0  9993,2 55415  69.9991 108.5652 0003008 269.5784  90.5031 14.99303502 20415,6947.184,96.045,571.139,566.959,0.0
55415.0,STARLINK-5618,PAYLOAD,2023-06-04 22:11:49,14.99225663,0.0003521,69.9988,107.7231,271.4861,88.5896,-0.00077453,-9.54e-05,0.0,0 STARLINK-5618,1 55415U 23014AA  23155.92487908 -.00009540  00000-0 -77453-3 0  9992,2 55415  69.9988 107.7231 0003521 271.4861  88.5896 14.99225663 20465,6947.425,96.05,571.736,566.843,0.0
55415.0,STARLINK-5618,PAYLOAD,2023-06-05 04:36:29,14.98967942,0.0003427,69.9987,107.05,271.8474,88.2293,-0.0034673,-0.00041906,0.0,0 STARLINK-5618,1 55415U 23014AA  23156.19200355 -.00041906  00000-0 -34673-2 0  9999,2 55415  69.9987 107.0500 0003427 271.8474  88.2293 14.98967942 19564,6948.221,96.066,572.467,567.705,0.0
55415.0,STARLINK-5618,PAYLOAD,2023-06-05 07:48:52,14.98805335,0.0003355,69.9988,106.7143,266.187,93.8905,-0.0050389,-0.00060442,0.0,0 STARLINK-5618,1 55415U 23014AA  23156.32560592 -.00060442  00000-0 -50389-2 0  9994,2 55415  69.9988 106.7143 0003355 266.1870  93.8905 14.98805335 19582,6948.723,96.077,572.92,568.257,0.0
55415.0,STARLINK-5618,PAYLOAD,2023-06-05 23:49:59,14.98721077,0.0003278,69.9986,105.0295,268.0844,91.994,-0.0051978,-0.00062193,0.0,0 STARLINK-5618,1 55415U 23014AA  23156.99304776 -.00062193  00000-0 -51978-2 0  9997,2 55415  69.9986 105.0295 0003278 268.0844  91.9940 14.98721077 19685,6948.984,96.082,573.127,568.571,0.0
55415.0,STARLINK-5618,PAYLOAD,2023-06-06 09:26:40,14.98684179,0.0003263,69.9989,104.0193,265.3472,94.7315,-0.0049827,-0.00059588,0.0,0 STARLINK-5618,1 55415U 23014AA  23157.39352036 -.00059588  00000-0 -49827-2 0  9998,2 55415  69.9989 104.0193 0003263 265.3472  94.7315 14.98684179 20685,6949.098,96.084,573.23,568.695,0.0
55415.0,STARLINK-5618,PAYLOAD,2023-06-06 20:39:30,14.98622267,0.0003452,69.9993,102.8415,262.7946,97.2821,-0.0046295,-0.00055317,0.0,0 STARLINK-5618,1 55415U 23014AA  23157.86076834 -.00055317  00000-0 -46295-2 0  9991,2 55415  69.9993 102.8415 0003452 262.7946  97.2821 14.98622267 20758,6949.289,96.088,573.553,568.755,0.0
55415.0,STARLINK-5618,PAYLOAD,2023-06-06 23:51:44,14.98614,0.0003486,69.9993,102.5047,263.9794,96.0968,-0.004567,-0.00054566,0.0,0 STARLINK-5618,1 55415U 23014AA  23157.99426938 -.00054566  00000-0 -45670-2 0  9990,2 55415  69.9993 102.5047 0003486 263.9794  96.0968 14.98614000 19839,6949.315,96.089,573.602,568.757,0.0
55415.0,STARLINK-5618,PAYLOAD,2023-06-07 06:16:14,14.98560597,0.0003459,69.9992,101.8309,269.0703,91.006,-0.0036843,-0.00044042,0.0,0 STARLINK-5618,1 55415U 23014AA  23158.26128160 -.00044042  00000-0 -36843-2 0  9997,2 55415  69.9992 101.8309 0003459 269.0703  91.0060 14.98560597 19871,6949.48,96.092,573.749,568.941,0.0
55415.0,STARLINK-5618,PAYLOAD,2023-06-07 14:16:56,14.98388842,0.0003223,69.9988,100.9882,267.8165,92.2625,-0.00099978,-0.0001202,0.0,0 STARLINK-5618,1 55415U 23014AA  23158.59510170 -.00012020  00000-0 -99978-3 0  9999,2 55415  69.9988 100.9882 0003223 267.8165  92.2625 14.98388842 20861,6950.011,96.103,574.116,569.636,0.0
55415.0,STARLINK-5618,PAYLOAD,2023-06-07 19:05:22,14.98326789,0.0003154,69.9988,100.4833,267.5112,92.5686,-5.1434e-05,-7.07e-06,0.0,0 STARLINK-5618,1 55415U 23014AA  23158.79539805 -.00000707  00000-0 -51434-4 0  9992,2 55415  69.9988 100.4833 0003154 267.5112  92.5686 14.98326789 19954,6950.203,96.107,574.26,569.876,0.0
55415.0,STARLINK-5618,PAYLOAD,2023-06-07 20:41:30,14.98327143,0.0003157,69.9988,100.315,267.4686,92.6112,-4.6944e-05,-6.53e-06,0.0,0 STARLINK-5618,1 55415U 23014AA  23158.86215776 -.00000653  00000-0 -46944-4 0  9998,2 55415  69.9988 100.3150 0003157 267.4686  92.6112 14.98327143 20900,6950.202,96.107,574.261,569.873,0.0
55415.0,STARLINK-5618,PAYLOAD,2023-06-08 14:00:01,14.98313555,0.00032,70.001,98.4976,270.4375,18.6318,0.0016824,0.0002003,0.0,0 STARLINK-5618,1 55415U 23014AA  23159.58334491  .00020030  00000-0  16824-2 0  9995,2 55415  70.0010  98.4976 0003200 270.4375  18.6318 14.98313555  1301,6950.244,96.108,574.333,569.885,0.0
55415.0,STARLINK-5618,PAYLOAD,2023-06-08 22:00:00,14.9836063,0.0003249,70.0012,97.6572,269.0966,17.435,-0.002513,-0.00029974,0.0,0 STARLINK-5618,1 55415U 23014AA  23159.91667824 -.00029974  00000-0 -25130-2 0  9999,2 55415  70.0012  97.6572 0003249 269.0966  17.4350 14.98360630 20129,6950.098,96.105,574.221,569.705,0.0
55415.0,STARLINK-5618,PAYLOAD,2023-06-08 23:55:47,14.98296477,0.000297,69.9993,97.4537,271.9582,88.1237,0.00052636,6.188e-05,0.0,0 STARLINK-5618,1 55415U 23014AA  23159.99708004  .00006188  00000-0  52636-3 0  9995,2 55415  69.9993  97.4537 0002970 271.9582  88.1237 14.98296477 20136,6950.297,96.109,574.226,570.097,0.0
55415.0,STARLINK-5618,PAYLOAD,2023-06-09 06:20:19,14.98335089,0.0003105,69.9993,96.7804,272.319,87.7613,3.9686e-05,3.81e-06,0.0,0 STARLINK-5618,1 55415U 23014AA  23160.26411017  .00000381  00000-0  39686-4 0  9992,2 55415  69.9993  96.7804 0003105 272.3190  87.7613 14.98335089 20176,6950.177,96.107,574.2,569.884,0.0
55415.0,STARLINK-5618,PAYLOAD,2023-06-09 12:44:51,14.98331216,0.0003028,69.9995,96.1081,269.6102,90.471,-5.8899e-05,-7.96e-06,0.0,0 STARLINK-5618,1 55415U 23014AA  23160.53115471 -.00000796  00000-0 -58899-4 0  9996,2 55415  69.9995  96.1081 0003028 269.6102  90.4710 14.98331216 21151,6950.189,96.107,574.159,569.95,0.0
55415.0,STARLINK-5618,PAYLOAD,2023-06-10 04:46:13,14.98296028,0.000286,70.0003,94.4257,263.1874,96.8959,0.00054041,6.355e-05,0.0,0 STARLINK-5618,1 55415U 23014AA  23161.19876393  .00006355  00000-0  54041-3 0  9995,2 55415  70.0003  94.4257 0002860 263.1874  96.8959 14.98296028 20311,6950.298,96.109,574.151,570.175,0.0
55415.0,STARLINK-5618,PAYLOAD,2023-06-10 12:46:52,14.98329574,0.000286,70.0003,93.5836,270.3441,89.739,9.7831e-06,2.4e-07,0.0,0 STARLINK-5618,1 55415U 23014AA  23161.53255523  .00000024  00000-0  97831-5 0  9992,2 55415  70.0003  93.5836 0002860 270.3441  89.7390 14.98329574 21307,6950.194,96.107,574.047,570.071,0.0
55415.0,STARLINK-5618,PAYLOAD,2023-06-11 12:48:53,14.98333477,0.0003135,69.9998,91.0574,272.9072,87.1728,-4.3397e-05,-6.11e-06,0.0,0 STARLINK-5618,1 55415U 23014AA  23162.53395192 -.00000611  00000-0 -43397-4 0  9991,2 55415  69.9998  91.0574 0003135 272.9072  87.1728 14.98333477 21453,6950.182,96.107,574.226,569.868,0.0
55415.0,STARLINK-5618,PAYLOAD,2023-06-11 19:13:25,14.98325095,0.0003154,70.0002,90.3831,272.1513,87.9285,5.8289e-05,6.02e-06,0.0,0 STARLINK-5618,1 55415U 23014AA  23162.80099420  .00000602  00000-0  58289-4 0  9990,2 55415  70.0002  90.3831 0003154 272.1513  87.9285 14.98325095 21490,6950.208,96.107,574.265,569.881,0.0
55415.0,STARLINK-5618,PAYLOAD,2023-06-12 12:50:54,14.9832843,0.0003178,69.9996,88.534,272.8155,87.264,-8.711e-06,-1.97e-06,0.0,0 STARLINK-5618,1 55415U 23014AA  23163.53535438 -.00000197  00000-0 -87110-5 0  9992,2 55415  69.9996  88.5340 0003178 272.8155  87.2640 14.98328430 21605,6950.198,96.107,574.272,569.854,0.0
55415.0,STARLINK-5618,PAYLOAD,2023-06-13 04:52:15,14.98313608,0.000295,70.0011,86.8494,270.2486,89.8335,0.00018157,2.073e-05,0.0,0 STARLINK-5618,1 55415U 23014AA  23164.20295984  .00002073  00000-0  18157-3 0  9992,2 55415  70.0011  86.8494 0002950 270.2486  89.8335 14.98313608 20769,6950.244,96.108,574.159,570.058,0.0
55415.0,STARLINK-5618,PAYLOAD,2023-06-14 01:41:59,14.98330262,0.0003066,70.001,84.6628,266.5645,93.5164,4.5949e-05,4.55e-06,0.0,0 STARLINK-5618,1 55415U 23014AA  23165.07083144  .00000455  00000-0  45949-4 0  9993,2 55415  70.0010  84.6628 0003066 266.5645  93.5164 14.98330262 20898,6950.192,96.107,574.188,569.926,0.0
55415.0,STARLINK-5618,PAYLOAD,2023-06-14 04:54:15,14.98335667,0.0003055,70.0006,84.3256,267.2622,92.8187,2.7773e-05,2.38e-06,0.0,0 STARLINK-5618,1 55415U 23014AA  23165.20434815  .00000238  00000-0  27773-4 0  9997,2 55415  70.0006  84.3256 0003055 267.2622  92.8187 14.98335667 21856,6950.175,96.107,574.164,569.917,0.0
